#cP2019 10 19  0  0  0.00000000      96 ORBIT IGS14 HLM  IGS
## 2075 518400.00000000   900.00000000 58775 0.0000000000000
+   31   G01G02G03G05G06G07G08G09G10G11G12G13G14G15G16G17G18
+        G19G20G21G22G23G24G25G26G27G28G29G30G31G32  0  0  0
+          0  0  0  0  0  0  0  0  0  0  0  0  0  0  0  0  0
+          0  0  0  0  0  0  0  0  0  0  0  0  0  0  0  0  0
+          0  0  0  0  0  0  0  0  0  0  0  0  0  0  0  0  0
++         2  2  2  2  2  2  2  2  2  2  2  2  2  2  2  2  2
++         2  2  2  2  2  2  2  2  2  2  2  2  2  2  0  0  0
++         0  0  0  0  0  0  0  0  0  0  0  0  0  0  0  0  0
++         0  0  0  0  0  0  0  0  0  0  0  0  0  0  0  0  0
++         0  0  0  0  0  0  0  0  0  0  0  0  0  0  0  0  0
%c G  cc GPS ccc cccc cccc cccc cccc ccccc ccccc ccccc ccccc
%c cc cc ccc ccc cccc cccc cccc cccc ccccc ccccc ccccc ccccc
%f  1.2500000  1.025000000  0.00000000000  0.000000000000000
%f  0.0000000  0.000000000  0.00000000000  0.000000000000000
%i    0    0    0    0      0      0      0      0         0
%i    0    0    0    0      0      0      0      0         0
/* FINAL ORBIT COMBINATION FROM WEIGHTED AVERAGE OF:        
/* cod emr esa gfz grg jpl mit ngs sio                      
/* REFERENCED TO IGS TIME (IGST) AND TO WEIGHTED MEAN POLE: 
/* PCV:IGS14_2074 OL/AL:FES2004  NONE     Y  ORB:CMB CLK:CMB
*  2019 10 19  3  0  0.00000000
PG01  -7963.992702 -13810.582959 -21499.492068   -167.497991  7  6  4  93       
PG02 -14833.440932  14646.666318  17003.410435   -328.825981  7  7  5  78       
PG03 -12934.150002 -22896.319308  -4120.886213    -24.261220  4  6  6  96       
PG05  -3080.215947  18200.534263  18887.068609     -2.474840  5  6  5  74       
PG06 -25244.855544   6299.607810   5448.743555    -95.176537  4  8  4 104       
PG07 -22554.274038  -7137.936365  12824.668004   -130.115576  4  8  6  84       
PG08   3972.762027 -24562.909603  -8943.883771    -10.386983  6  7  5  94       
PG09 -11844.956281 -10610.567205  21221.676292    -60.484631  5  6  6  72       
PG10  18735.573777   4066.491994 -18412.411607    -99.784160  5  4  3  83       
PG11  -4589.993439 -16316.972843 -21003.018132   -473.973627  5  6  5 105       
PG12   8136.246102  23964.403976  -8539.056366    192.597091  7  8  5  90       
PG13 -12722.275781  23211.815774  -1788.818755    -38.038161  7  7  5  43       
PG14  17568.023635 -16461.197257 -10685.593341    -55.359408  6  7  4  46       
PG15   -562.761878  24595.721486  -9774.293632   -278.896215  7  6  5  60       
PG16   6174.005448 -15880.238732  20058.776250    -84.648803  6  8  6  98       
PG17 -17477.401906   7762.239157 -17975.657597    146.768675  7  7  4  85       
PG18   1563.172839 -15803.757114 -21786.138820     94.046701  6  4  3  89       
PG19 -18458.294020  13537.262274 -13787.733380   -251.797395  9  9  6  79       
PG20  21574.510389  11594.091405 -10605.890833    527.239756  6  3  5  83       
PG21  24371.488738   3572.729767  10456.085366   -100.115553  7  5  6  90       
PG22  -8421.111892 -22641.222461 -10932.828777   -765.075360  5  7  4  83       
PG23  -4971.629413 -19872.230419  17040.771733   -160.637060  6  8  6  65       
PG24   5883.731761  14934.446652 -21359.499761     -3.669296  8  7  5  89       
PG25  17730.936536  19381.518846   4556.231195    -15.692511  4  6    107       
PG26  13333.496836  -7955.374458  21541.970793     64.693299  4  6  6 105       
PG27  12292.899545 -23201.715798   2564.241944    -92.075411  7  7  7  93       
PG28 -17507.451327  -5039.577309 -18680.287450    758.526872  5  7  4 103       
PG29   9187.156179  12802.128156  21344.678656     67.523267  4  7  4 104       
PG30 -26583.244778     51.249621   2164.845407    -64.670822  3  6  5 106       
PG31  24782.873866  -7003.560671   7390.167694      2.714081  7  6  4  98       
PG32  17538.000775  -8245.858394 -18043.648859     96.142751  4  6  8  82       
*  2019 10 19  3 15  0.00000000
PG01  -5548.960364 -14142.929874 -22013.259054   -167.509786  7  6  4  88       
PG02 -16572.460392  14819.788465  15053.477955   -328.833169  7  7  5  62       
PG03 -12371.133827 -22545.803549  -6884.410739    -24.265678  3  5  6  95       
PG05  -4615.115076  16529.313254  20082.528729     -2.475005  5  6  5  86       
PG06 -25723.303202   6159.930494   2611.350066    -95.188036  4  8  4  96       
PG07 -21052.331817  -7493.951364  14994.168436   -130.122828  5  7  6 100       
PG08   4508.759466 -25294.082806  -6236.623208    -10.388806  6  8  5  99       
PG09 -10897.661236 -12817.158761  20500.099815    -60.493721  5  6  6  88       
PG10  19861.483559   5741.811487 -16733.805553    -99.797960  5  4  3  88       
PG11  -2652.920260 -17518.601550 -20370.760232   -473.963446  5  7  6 103       
PG12   7396.896546  23147.067590 -11123.954257    192.593310  7  8  5  89       
PG13 -12944.372856  23117.772786   1085.563388    -38.035821  7  8  5  46       
PG14  17137.309476 -15096.574135 -13078.114509    -55.357617  5  7  5  77       
PG15  -1163.731709  25408.405623  -7196.887199   -278.893811  7  7  5  71       
PG16   7540.679964 -13909.051756  21060.088454    -84.652397  6  8  6 100       
PG17 -16620.019720   5711.690933 -19468.383775    146.774766  6  6  4  74       
PG18   3888.977104 -16184.195381 -21185.008552     94.048859  6  4  3  87       
PG19 -17797.907724  12019.880856 -15938.685359   -251.792907  8  9  6  78       
PG20  22115.140585  12546.967227  -8102.446487    527.239638  5  2  5  94       
PG21  23205.363820   4044.548293  12861.994379   -100.109951  7  4  5  79       
PG22  -7261.120923 -21780.905916 -13218.340187   -765.078402  5  7  4  85       
PG23  -4119.682045 -21476.255583  15145.993284   -160.635187  6  8  7  80       
PG24   3502.953456  15394.690936 -21525.163336     -3.668191  7  7  4  92       
PG25  17792.321498  19813.744633   1730.501119    -15.693380  4  6    109       
PG26  14860.899883  -6039.989433  21178.852802     64.701034  4  6  6 102       
PG27  12321.611092 -22678.847555   5425.112235    -92.086318  6  7  7  88       
PG28 -18548.444721  -6931.708716 -17040.462842    758.525393  4  6  5 106       
PG29   8077.896738  14918.971365  20397.004502     67.513897  4  7  4 106       
PG30 -26211.527641   -279.650456   4928.747889    -64.678275  3  5  5  99       
PG31  25485.265314  -6860.503945   4674.710167      2.711437  6  6  3 101       
PG32  16859.544589  -6187.468938 -19464.534902     96.154249  4  7  8  68       
*  2019 10 19  3 30  0.00000000
PG01  -3117.152087 -14616.075512 -22156.109210   -167.521599  6  6  4  95       
PG02 -18081.554812  15022.947169  12852.771369   -328.840326  7  7  5  77       
PG03 -11590.391543 -21994.793253  -9530.276892    -24.270181  3  5  6 100       
PG05  -6309.141194  14851.976082  20926.768738     -2.475509  5  6  5  74       
PG06 -25890.867408   5983.288104   -270.891173    -95.199547  3  8  4  84       
PG07 -19346.791852  -7968.856764  16915.550747   -130.130024  6  7  6  97       
PG08   4907.129694 -25753.588717  -3420.542059    -10.390536  6  8  5 105       
PG09 -10095.293946 -14972.057957  19424.159981    -60.502756  5  6  7  59       
PG10  20937.951915   7198.592441 -14768.452028    -99.811769  5  4  3  98       
PG11   -843.932857 -18754.411191 -19404.718183   -473.953384  4  7  6  98       
PG12   6444.922405  22148.941885 -13520.931570    192.589943  6  8  6  86       
PG13 -13028.812393  22743.016013   3941.157876    -38.034197  6  8  5  42       
PG14  16673.355860 -13470.751058 -15239.289797    -55.355524  5  6  5  27       
PG15  -1659.782454  25958.337912  -4493.863416   -278.891152  6  7  5  46       
PG16   9065.476124 -11942.080058  21689.938044    -84.655535  6  8  6  97       
PG17 -15818.590896   3474.518246 -20613.218196    146.781369  5  5  3  82       
PG18   6110.623215 -16665.965293 -20234.581158     94.051227  6  5  3  33       
PG19 -17128.860680  10263.962403 -17820.987858   -251.788172  7  8  5  83       
PG20  22486.038892  13280.739167  -5461.513728    527.239274  5  3  5  94       
PG21  21821.186493   4633.874877  15053.387354   -100.104701  6  4  5  94       
PG22  -5885.485199 -20802.765654 -15274.609097   -765.081196  5  7  4  83       
PG23  -3414.262234 -22906.646563  12991.780425   -160.633533  7  9  7  83       
PG24   1145.973189  15971.300227 -21325.998599     -3.668458  7  8  4 102       
PG25  17668.499940  19998.675151  -1124.616244    -15.694177  4  6    104       
PG26  16439.937987  -4250.780553  20451.642364     64.708658  4  6  5 103       
PG27  12275.103355 -21853.242229   8190.615839    -92.097203  6  8  7 100       
PG28 -19566.963559  -8592.841234 -15092.490814    758.524450  4  6  5 105       
PG29   7138.129350  16976.775592  19097.179323     67.505285  5  7  3 102       
PG30 -25554.252722   -674.622992   7608.879848    -64.685744  4  5  5  93       
PG31  25889.587950  -6704.651282   1880.951982      2.709002  6  6  3  95       
PG32  16242.125660  -3963.000348 -20547.590100     96.165728  4  6  8  62       
EOF
